ASTERIA                 
1 43020U 98067NH  18312.45528315  .00016470  00000-0  18509-3 0  9991
2 43020  51.6429   7.9090 0002862   5.8953 354.2074 15.62754072 55027
DELLINGR (RBLE)         
1 43021U 98067NJ  18312.60076060  .00006686  00000-0  88913-4 0  9999
2 43021  51.6407  11.0758 0002559 357.5394   2.5586 15.59512030 54998
OSIRIS-3U               
1 43027U 98067NL  18312.55529883  .00060315  00000-0  39295-3 0  9992
2 43027  51.6367 354.9176 0005076   8.0773 352.0308 15.75296624 55080
AEROCUBE 7B             
1 43042U 17071F   18312.57375706  .00003869  00000-0  10612-3 0  9993
2 43042  51.6396  57.6572 0005337  72.3878 287.7689 15.39757849 51843
AEROCUBE 7C             
1 43043U 17071G   18312.76830994  .00003782  00000-0  10394-3 0  9991
2 43043  51.6400  56.7148 0005448  74.2666 285.8919 15.39766233 51840
CHEFSAT                 
1 43044U 17071H   18312.53753696  .00005361  00000-0  13635-3 0  9996
2 43044  51.6406  55.9742 0005260  72.5927 287.5633 15.41266707 51836
ASGARDIA 1              
1 43049U 17071N   18312.54290935  .00002965  00000-0  83367-4 0  9991
2 43049  51.6403  57.4714 0003008  92.6404 267.4925 15.39877462 51817
ISARA                   
1 43050U 17071P   18312.49452682  .00006196  00000-0  15750-3 0  9996
2 43050  51.6400  56.4206 0002763  88.5992 271.5309 15.40983880 51821
FAUNA                   
1 43052U 17071R   18312.51671710  .00003895  00000-0  10574-3 0  9998
2 43052  51.6404  57.3094 0002903  89.0606 271.0711 15.40062294 51803
CORVUS BC3              
1 43118U 18004H   18312.61505294  .00000848  00000-0  39686-4 0  9993
2 43118  97.5169  15.3726 0009345 316.2735  43.7760 15.22483084 45685
MICROMAS-2A             
1 43131U 18004W   18312.37916789  .00002068  00000-0  90139-4 0  9992
2 43131  97.5184  15.4134 0008464 320.6802  39.3819 15.23309646 45662
GOMX4-B                 
1 43196U 18015E   18312.48974146  .00000531  00000-0  24941-4 0  9999
2 43196  97.3640  78.6345 0019736  12.8580 347.3156 15.23744680 42507
GOMX4-A                 
1 43197U 18015F   18312.77162632  .00000462  00000-0  22018-4 0  9997
2 43197  97.3646  78.9179 0019718  14.3404 119.9709 15.23817216 42552
1KUNS-PF                
1 43466U 98067NP  18312.44386588  .00013802  00000-0  18017-3 0  9998
2 43466  51.6409  16.0180 0000912   4.9984 355.1018 15.58982553 28174
UBAKUSAT                
1 43467U 98067NQ  18312.42262534  .00009599  00000-0  13197-3 0  9993
2 43467  51.6404  16.6286 0002664 323.8091  36.2721 15.58017194 28179
BATSU-CS1 (IRAZU)       
1 43468U 98067NR  18312.40392906  .00017218  00000-0  21689-3 0  9991
2 43468  51.6406  15.7522 0001002   3.3550 356.7450 15.59730793128167
CUBERRT                 
1 43546U 98067NU  18312.44827747  .00019241  00000-0  26661-3 0  9991
2 43546  51.6407  18.2898 0006439  16.2976 343.8222 15.57077565 18287
TEMPEST-D               
1 43547U 98067NV  18312.54894944  .00003608  00000-0  58402-4 0  9995
2 43547  51.6405  18.2082 0006221  18.4392 341.6823 15.55702701 17979
RAINCUBE                
1 43548U 98067NW  18312.46555125  .00010393  00000-0  15038-3 0  9998
2 43548  51.6405  18.4023 0006397  25.0925 335.0377 15.56513744 18416
HALOSAT                 
1 43549U 98067NX  18312.40194690  .00011032  00000-0  15922-3 0  9992
2 43549  51.6406  18.7283 0006342  27.0389 333.0932 15.56508142 17965
ENDUROSAT ONE           
1 43551U 98067NZ  18312.43634172  .00011043  00000-0  15607-3 0  9994
2 43551  51.6399  18.2062 0006935  32.0335 328.1078 15.57073737 18385
EQUISAT                 
1 43552U 98067PA  18312.44509939  .00009612  00000-0  13819-3 0  9990
2 43552  51.6406  18.2668 0007104  33.2810 326.8627 15.56787125 18340
AEROCUBE 12A            
1 43556U 18046C   18312.46449629  .00002572  00000-0  10555-3 0  9996
2 43556  51.6428  42.0573 0008343 358.9376   1.1585 15.27992654 17571
AEROCUBE 12B            
1 43557U 18046D   18312.46573748  .00002094  00000-0  88465-4 0  9992
2 43557  51.6436  42.0651 0008344 359.2648   0.8318 15.27947855 17523
UITMSAT-1               
1 43589U 98067PD  18312.48843289  .00010184  00000-0  14805-3 0  9995
2 43589  51.6404  18.5522 0006511  41.0257 319.1223 15.56409179 14087
MAYA-1                  
1 43590U 98067PE  18312.48682235  .00010056  00000-0  14614-3 0  9995
2 43590  51.6403  18.5420 0006583  41.9991 318.1505 15.56435203 14010
BHUTAN-1                
1 43591U 98067PF  18312.48457557  .00010363  00000-0  15015-3 0  9990
2 43591  51.6403  18.5272 0006701  42.9209 317.2304 15.56477115 14016
SIRIUSSAT-1             
1 43595U 98067PG  18312.57520019  .00009499  00000-0  14067-3 0  9992
2 43595  51.6404  18.3780 0004097 359.7867   0.3122 15.56004407 13206
SIRIUSSAT-2             
1 43596U 98067PH  18312.51871782  .00009614  00000-0  14308-3 0  9990
2 43596  51.6412  18.7593 0004776   1.6312 358.4694 15.55849487 13197
TANUSHA-3               
1 43597U 98067PJ  18312.44660274  .00012467  00000-0  18124-3 0  9995
2 43597  51.6393  19.0113 0004364  13.1246 346.9858 15.56177245 13185
SURFSAT                 
1 43614U 18070B   18312.90836332  .00003354  00000-0  94011-4 0  9997
2 43614  93.0302 271.9763 0019777  78.1677 282.1792 15.36459537  8343
CP-7 (DAVE)             
1 43615U 18070C   18312.90811349  .00003283  00000-0  92038-4 0  9997
2 43615  93.0292 271.9775 0019781  78.9987 281.3487 15.36460592  8347
ELFIN-B                 
1 43616U 18070D   18312.64475931 -.00000006  00000-0  00000+0 0  9996
2 43616  93.0278 271.8425 0020108  87.7202 272.6874 15.36567993  8308
ELFIN-A                 
1 43617U 18070E   18312.38320352 -.00000006  00000-0  00000+0 0  9994
2 43617  93.0346 271.7785 0019834  84.6485 275.7402 15.36602474  8266
DEBRISSAT-1             
1 43621U 98067PM  18312.46737031  .00079508  00000-0  92433-3 0  9995
2 43621  51.6515  17.7012 0005755  20.0826 340.0369 15.61009209  8195
CUBEBEL-1 (BSUSAT-1)    
1 43666U 18083E   18312.84337819  .00001232  00000-0  65515-4 0  9997
2 43666  97.5397 333.6649 0013877 236.9528 224.8624 15.17108249  1649
DEBRISSAT-2             
1 43680U 98067PR  18312.62146485  .00018115  00000-0  26503-3 0  9997
2 43680  51.6399  17.9331 0004490  31.7148 328.4113 15.55656692 21950
